ONEWEB-0320             
1 49190U 21083E   26129.08578751 -.00000011  00000+0 -60097-4 0  9997
2 49190  87.9170 343.2455 0001801  84.4193 275.7144 13.18686412224820
ONEWEB-0321             
1 49191U 21083F   26128.95893343 -.00000995  00000+0 -24806-2 0  9997
2 49191  87.9155 282.2605 0001695  88.9318 271.2009 13.20762021231656
ONEWEB-0322             
1 49192U 21083G   26129.07629976  .00000389  00000+0  10315-2 0  9996
2 49192  87.8941 328.0301 0001865  73.5850 286.5484 13.13471346225783
ONEWEB-0324             
1 49193U 21083H   26129.13467756 -.00000172  00000+0 -46776-3 0  9993
2 49193  87.9188 343.2192 0001656  87.2588 272.8734 13.18685853224851
ONEWEB-0325             
1 49194U 21083J   26129.13804344  .00000049  00000+0  91976-4 0  9996
2 49194  87.9178 343.2308 0001889  85.1973 274.9374 13.18685154224861
ONEWEB-0326             
1 49195U 21083K   26129.15335495  .00000045  00000+0  81167-4 0  9992
2 49195  87.9184 343.2219 0002024  91.7369 268.3995 13.18684535224851
ONEWEB-0327             
1 49196U 21083L   26129.15308331  .00000034  00000+0  54213-4 0  9992
2 49196  87.9178 343.2295 0002171  91.3042 268.8339 13.18684964224871
ONEWEB-0328             
1 49197U 21083M   26129.06613935  .00000217  00000+0  55922-3 0  9992
2 49197  87.8956 328.0010 0001642  90.9111 269.2206 13.13471752225766
ONEWEB-0331             
1 49198U 21083N   26129.14647218  .00000036  00000+0  58834-4 0  9998
2 49198  87.9188 343.2171 0001925  96.5436 263.5915 13.18684832224862
ONEWEB-0333             
1 49199U 21083P   26129.06105183  .00000159  00000+0  40101-3 0  9993
2 49199  87.8946 328.0318 0001810  88.0353 272.0983 13.13472289225772
ONEWEB-0334             
1 49200U 21083Q   26129.12790845  .00000153  00000+0  34386-3 0  9990
2 49200  87.9146 282.2393 0001834  67.1526 292.9801 13.20718100231633
ONEWEB-0335             
1 49201U 21083R   26129.05596678 -.00000049  00000+0 -16777-3 0  9991
2 49201  87.8948 328.0294 0001817  94.3092 265.8245 13.13471937225789
ONEWEB-0336             
1 49202U 21083S   26129.10338076 -.00000148  00000+0 -43967-3 0  9995
2 49202  87.8948 328.0161 0001796 101.4911 258.6419 13.13470210225785
ONEWEB-0337             
1 49203U 21083T   26129.11340097 -.00000220  00000+0 -63723-3 0  9996
2 49203  87.8945 328.0207 0001623  93.4936 266.6378 13.13470700225787
ONEWEB-0338             
1 49204U 21083U   26128.95093500  .00000810  00000+0  19578-2 0  9993
2 49204  87.9146 282.2793 0001793  84.7690 275.3648 13.20821049231633
ONEWEB-0339             
1 49205U 21083V   26129.12199494 -.00000110  00000+0 -33561-3 0  9997
2 49205  87.8947 328.0106 0001602  81.1979 278.9332 13.13471299225765
