[{"OBJECT_NAME":"ONEWEB-0320","OBJECT_ID":"2021-083E","EPOCH":"2026-05-09T02:03:32.040864","MEAN_MOTION":13.18686412,"ECCENTRICITY":0.0001801,"INCLINATION":87.917,"RA_OF_ASC_NODE":343.2455,"ARG_OF_PERICENTER":84.4193,"MEAN_ANOMALY":275.7144,"EPHEMERIS_TYPE":0,"CLASSIFICATION_TYPE":"U","NORAD_CAT_ID":49190,"ELEMENT_SET_NO":999,"REV_AT_EPOCH":22482,"BSTAR":-6.0097000000000004e-05,"MEAN_MOTION_DOT":-1.1e-07,"MEAN_MOTION_DDOT":0.0},{"OBJECT_NAME":"ONEWEB-0321","OBJECT_ID":"2021-083F","EPOCH":"2026-05-08T23:00:51.848352","MEAN_MOTION":13.20762021,"ECCENTRICITY":0.0001695,"INCLINATION":87.9155,"RA_OF_ASC_NODE":282.2605,"ARG_OF_PERICENTER":88.9318,"MEAN_ANOMALY":271.2009,"EPHEMERIS_TYPE":0,"CLASSIFICATION_TYPE":"U","NORAD_CAT_ID":49191,"ELEMENT_SET_NO":999,"REV_AT_EPOCH":23165,"BSTAR":-0.0024806,"MEAN_MOTION_DOT":-9.95e-06,"MEAN_MOTION_DDOT":0.0},{"OBJECT_NAME":"ONEWEB-0322","OBJECT_ID":"2021-083G","EPOCH":"2026-05-09T01:49:52.299264","MEAN_MOTION":13.13471346,"ECCENTRICITY":0.0001865,"INCLINATION":87.8941,"RA_OF_ASC_NODE":328.0301,"ARG_OF_PERICENTER":73.585,"MEAN_ANOMALY":286.5484,"EPHEMERIS_TYPE":0,"CLASSIFICATION_TYPE":"U","NORAD_CAT_ID":49192,"ELEMENT_SET_NO":999,"REV_AT_EPOCH":22578,"BSTAR":0.0010315,"MEAN_MOTION_DOT":3.89e-06,"MEAN_MOTION_DDOT":0.0},{"OBJECT_NAME":"ONEWEB-0324","OBJECT_ID":"2021-083H","EPOCH":"2026-05-09T03:13:56.141184","MEAN_MOTION":13.18685853,"ECCENTRICITY":0.0001656,"INCLINATION":87.9188,"RA_OF_ASC_NODE":343.2192,"ARG_OF_PERICENTER":87.2588,"MEAN_ANOMALY":272.8734,"EPHEMERIS_TYPE":0,"CLASSIFICATION_TYPE":"U","NORAD_CAT_ID":49193,"ELEMENT_SET_NO":999,"REV_AT_EPOCH":22485,"BSTAR":-0.00046776,"MEAN_MOTION_DOT":-1.72e-06,"MEAN_MOTION_DDOT":0.0},{"OBJECT_NAME":"ONEWEB-0325","OBJECT_ID":"2021-083J","EPOCH":"2026-05-09T03:18:46.953216","MEAN_MOTION":13.18685154,"ECCENTRICITY":0.0001889,"INCLINATION":87.9178,"RA_OF_ASC_NODE":343.2308,"ARG_OF_PERICENTER":85.1973,"MEAN_ANOMALY":274.9374,"EPHEMERIS_TYPE":0,"CLASSIFICATION_TYPE":"U","NORAD_CAT_ID":49194,"ELEMENT_SET_NO":999,"REV_AT_EPOCH":22486,"BSTAR":9.1976e-05,"MEAN_MOTION_DOT":4.9e-07,"MEAN_MOTION_DDOT":0.0},{"OBJECT_NAME":"ONEWEB-0326","OBJECT_ID":"2021-083K","EPOCH":"2026-05-09T03:40:49.867680","MEAN_MOTION":13.18684535,"ECCENTRICITY":0.0002024,"INCLINATION":87.9184,"RA_OF_ASC_NODE":343.2219,"ARG_OF_PERICENTER":91.7369,"MEAN_ANOMALY":268.3995,"EPHEMERIS_TYPE":0,"CLASSIFICATION_TYPE":"U","NORAD_CAT_ID":49195,"ELEMENT_SET_NO":999,"REV_AT_EPOCH":22485,"BSTAR":8.1167e-05,"MEAN_MOTION_DOT":4.5e-07,"MEAN_MOTION_DDOT":0.0},{"OBJECT_NAME":"ONEWEB-0327","OBJECT_ID":"2021-083L","EPOCH":"2026-05-09T03:40:26.397984","MEAN_MOTION":13.18684964,"ECCENTRICITY":0.0002171,"INCLINATION":87.9178,"RA_OF_ASC_NODE":343.2295,"ARG_OF_PERICENTER":91.3042,"MEAN_ANOMALY":268.8339,"EPHEMERIS_TYPE":0,"CLASSIFICATION_TYPE":"U","NORAD_CAT_ID":49196,"ELEMENT_SET_NO":999,"REV_AT_EPOCH":22487,"BSTAR":5.4213000000000004e-05,"MEAN_MOTION_DOT":3.4e-07,"MEAN_MOTION_DDOT":0.0},{"OBJECT_NAME":"ONEWEB-0328","OBJECT_ID":"2021-083M","EPOCH":"2026-05-09T01:35:14.439840","MEAN_MOTION":13.13471752,"ECCENTRICITY":0.0001642,"INCLINATION":87.8956,"RA_OF_ASC_NODE":328.001,"ARG_OF_PERICENTER":90.9111,"MEAN_ANOMALY":269.2206,"EPHEMERIS_TYPE":0,"CLASSIFICATION_TYPE":"U","NORAD_CAT_ID":49197,"ELEMENT_SET_NO":999,"REV_AT_EPOCH":22576,"BSTAR":0.00055922,"MEAN_MOTION_DOT":2.17e-06,"MEAN_MOTION_DDOT":0.0},{"OBJECT_NAME":"ONEWEB-0331","OBJECT_ID":"2021-083N","EPOCH":"2026-05-09T03:30:55.196352","MEAN_MOTION":13.18684832,"ECCENTRICITY":0.0001925,"INCLINATION":87.9188,"RA_OF_ASC_NODE":343.2171,"ARG_OF_PERICENTER":96.5436,"MEAN_ANOMALY":263.5915,"EPHEMERIS_TYPE":0,"CLASSIFICATION_TYPE":"U","NORAD_CAT_ID":49198,"ELEMENT_SET_NO":999,"REV_AT_EPOCH":22486,"BSTAR":5.8834e-05,"MEAN_MOTION_DOT":3.6e-07,"MEAN_MOTION_DDOT":0.0},{"OBJECT_NAME":"ONEWEB-0333","OBJECT_ID":"2021-083P","EPOCH":"2026-05-09T01:27:54.878112","MEAN_MOTION":13.13472289,"ECCENTRICITY":0.000181,"INCLINATION":87.8946,"RA_OF_ASC_NODE":328.0318,"ARG_OF_PERICENTER":88.0353,"MEAN_ANOMALY":272.0983,"EPHEMERIS_TYPE":0,"CLASSIFICATION_TYPE":"U","NORAD_CAT_ID":49199,"ELEMENT_SET_NO":999,"REV_AT_EPOCH":22577,"BSTAR":0.00040101,"MEAN_MOTION_DOT":1.59e-06,"MEAN_MOTION_DDOT":0.0},{"OBJECT_NAME":"ONEWEB-0334","OBJECT_ID":"2021-083Q","EPOCH":"2026-05-09T03:04:11.290080","MEAN_MOTION":13.207181,"ECCENTRICITY":0.0001834,"INCLINATION":87.9146,"RA_OF_ASC_NODE":282.2393,"ARG_OF_PERICENTER":67.1526,"MEAN_ANOMALY":292.9801,"EPHEMERIS_TYPE":0,"CLASSIFICATION_TYPE":"U","NORAD_CAT_ID":49200,"ELEMENT_SET_NO":999,"REV_AT_EPOCH":23163,"BSTAR":0.00034386000000000003,"MEAN_MOTION_DOT":1.53e-06,"MEAN_MOTION_DDOT":0.0},{"OBJECT_NAME":"ONEWEB-0335","OBJECT_ID":"2021-083R","EPOCH":"2026-05-09T01:20:35.529792","MEAN_MOTION":13.13471937,"ECCENTRICITY":0.0001817,"INCLINATION":87.8948,"RA_OF_ASC_NODE":328.0294,"ARG_OF_PERICENTER":94.3092,"MEAN_ANOMALY":265.8245,"EPHEMERIS_TYPE":0,"CLASSIFICATION_TYPE":"U","NORAD_CAT_ID":49201,"ELEMENT_SET_NO":999,"REV_AT_EPOCH":22578,"BSTAR":-0.00016777,"MEAN_MOTION_DOT":-4.9e-07,"MEAN_MOTION_DDOT":0.0},{"OBJECT_NAME":"ONEWEB-0336","OBJECT_ID":"2021-083S","EPOCH":"2026-05-09T02:28:52.097664","MEAN_MOTION":13.1347021,"ECCENTRICITY":0.0001796,"INCLINATION":87.8948,"RA_OF_ASC_NODE":328.0161,"ARG_OF_PERICENTER":101.4911,"MEAN_ANOMALY":258.6419,"EPHEMERIS_TYPE":0,"CLASSIFICATION_TYPE":"U","NORAD_CAT_ID":49202,"ELEMENT_SET_NO":999,"REV_AT_EPOCH":22578,"BSTAR":-0.00043967,"MEAN_MOTION_DOT":-1.48e-06,"MEAN_MOTION_DDOT":0.0},{"OBJECT_NAME":"ONEWEB-0337","OBJECT_ID":"2021-083T","EPOCH":"2026-05-09T02:43:17.843808","MEAN_MOTION":13.134707,"ECCENTRICITY":0.0001623,"INCLINATION":87.8945,"RA_OF_ASC_NODE":328.0207,"ARG_OF_PERICENTER":93.4936,"MEAN_ANOMALY":266.6378,"EPHEMERIS_TYPE":0,"CLASSIFICATION_TYPE":"U","NORAD_CAT_ID":49203,"ELEMENT_SET_NO":999,"REV_AT_EPOCH":22578,"BSTAR":-0.00063723,"MEAN_MOTION_DOT":-2.2e-06,"MEAN_MOTION_DDOT":0.0},{"OBJECT_NAME":"ONEWEB-0338","OBJECT_ID":"2021-083U","EPOCH":"2026-05-08T22:49:20.784000","MEAN_MOTION":13.20821049,"ECCENTRICITY":0.0001793,"INCLINATION":87.9146,"RA_OF_ASC_NODE":282.2793,"ARG_OF_PERICENTER":84.769,"MEAN_ANOMALY":275.3648,"EPHEMERIS_TYPE":0,"CLASSIFICATION_TYPE":"U","NORAD_CAT_ID":49204,"ELEMENT_SET_NO":999,"REV_AT_EPOCH":23163,"BSTAR":0.0019578,"MEAN_MOTION_DOT":8.1e-06,"MEAN_MOTION_DDOT":0.0},{"OBJECT_NAME":"ONEWEB-0339","OBJECT_ID":"2021-083V","EPOCH":"2026-05-09T02:55:40.362816","MEAN_MOTION":13.13471299,"ECCENTRICITY":0.0001602,"INCLINATION":87.8947,"RA_OF_ASC_NODE":328.0106,"ARG_OF_PERICENTER":81.1979,"MEAN_ANOMALY":278.9332,"EPHEMERIS_TYPE":0,"CLASSIFICATION_TYPE":"U","NORAD_CAT_ID":49205,"ELEMENT_SET_NO":999,"REV_AT_EPOCH":22576,"BSTAR":-0.00033561,"MEAN_MOTION_DOT":-1.1e-06,"MEAN_MOTION_DDOT":0.0}]